STARLINK-5922           
1 55925U 23037M   25216.21636632 -.00000832  00000+0 -61965-4 0  9991
2 55925  70.0017 132.7105 0002383 265.1959  94.8928 14.98319782131259
STARLINK-5921           
1 55926U 23037N   25216.16188690 -.00000531  00000+0 -36721-4 0  9990
2 55926  70.0009 113.0451 0002743 268.2600  91.8245 14.98330711131393
STARLINK-5919           
1 55927U 23037P   25216.20816147  .00000351  00000+0  37202-4 0  9994
2 55927  70.0011 132.6821 0002892 274.3698  85.7131 14.98333833130916
STARLINK-5930           
1 55928U 23037Q   25216.20382121  .00000754  00000+0  70975-4 0  9996
2 55928  70.0010 132.6660 0002894 270.5150  89.5678 14.98335331130913
STARLINK-5896           
1 55930U 23037S   25216.13267296  .00001381  00000+0  12348-3 0  9992
2 55930  69.9998 112.9448 0002980 269.1759  90.9059 14.98329635131390
STARLINK-5897           
1 55931U 23037T   25216.19964962  .00000013  00000+0  88645-5 0  9999
2 55931  70.0011 132.6513 0002784 268.0017  92.0823 14.98331821130918
STARLINK-5848           
1 55932U 23037U   25216.62477955  .00000366  00000+0  38422-4 0  9997
2 55932  69.9996  91.5656 0002862 273.9796  86.1036 14.98332084131963
STARLINK-5852           
1 55933U 23037V   25216.09095296 -.00000203  00000+0 -91868-5 0  9999
2 55933  70.0007 113.2009 0002929 271.1266  88.9557 14.98329917131385
STARLINK-5927           
1 55934U 23037W   25216.13283092  .00000613  00000+0  59146-4 0  9993
2 55934  70.0003 112.9417 0002978 268.6433  91.4385 14.98332565131394
STARLINK-5920           
1 55935U 23037X   25216.15353787 -.00000023  00000+0  58448-5 0  9996
2 55935  70.0010 113.0153 0002814 275.2803  84.8035 14.98332280131398
STARLINK-5882           
1 55936U 23037Y   25216.09487426  .00000270  00000+0  30430-4 0  9991
2 55936  70.0003  92.9270 0002818 271.2570  88.8267 14.98331676131880
STARLINK-5913           
1 55937U 23037Z   25216.14936119  .00000811  00000+0  75707-4 0  9993
2 55937  70.0007 113.0003 0002987 273.7889  86.2928 14.98334389131397
STARLINK-5909           
1 55938U 23037AA  25216.14518797  .00000437  00000+0  44446-4 0  9992
2 55938  70.0006 112.9855 0002973 270.9788  89.1030 14.98332347131390
STARLINK-5918           
1 55939U 23037AB  25216.13684124  .00001388  00000+0  12410-3 0  9991
2 55939  70.0004 112.9562 0003021 271.2173  88.8640 14.98339969131391
STARLINK-5864           
1 55940U 23037AC  25216.14101472  .00000358  00000+0  37791-4 0  9990
2 55940  70.0006 112.9709 0002909 270.6649  89.4177 14.98332641131395
STARLINK-5914           
1 55941U 23037AD  25216.16605786  .00001078  00000+0  98102-4 0  9993
2 55941  69.9999 113.0592 0003176 269.2727  90.8068 14.98333699131393
STARLINK-5917           
1 55942U 23037AE  25216.11596999  .00000219  00000+0  26105-4 0  9994
2 55942  70.0003 112.8809 0002899 268.6012  91.4815 14.98329583131396
