[{"OBJECT_NAME":"STARLINK-5922","OBJECT_ID":"2023-037M","EPOCH":"2025-08-04T05:11:34.050048","MEAN_MOTION":14.98319782,"ECCENTRICITY":0.0002383,"INCLINATION":70.0017,"RA_OF_ASC_NODE":132.7105,"ARG_OF_PERICENTER":265.1959,"MEAN_ANOMALY":94.8928,"EPHEMERIS_TYPE":0,"CLASSIFICATION_TYPE":"U","NORAD_CAT_ID":55925,"ELEMENT_SET_NO":999,"REV_AT_EPOCH":13125,"BSTAR":-6.1965e-5,"MEAN_MOTION_DOT":-8.32e-6,"MEAN_MOTION_DDOT":0},{"OBJECT_NAME":"STARLINK-5921","OBJECT_ID":"2023-037N","EPOCH":"2025-08-04T03:53:07.028160","MEAN_MOTION":14.98330711,"ECCENTRICITY":0.0002743,"INCLINATION":70.0009,"RA_OF_ASC_NODE":113.0451,"ARG_OF_PERICENTER":268.26,"MEAN_ANOMALY":91.8245,"EPHEMERIS_TYPE":0,"CLASSIFICATION_TYPE":"U","NORAD_CAT_ID":55926,"ELEMENT_SET_NO":999,"REV_AT_EPOCH":13139,"BSTAR":-3.6721e-5,"MEAN_MOTION_DOT":-5.31e-6,"MEAN_MOTION_DDOT":0},{"OBJECT_NAME":"STARLINK-5919","OBJECT_ID":"2023-037P","EPOCH":"2025-08-04T04:59:45.151008","MEAN_MOTION":14.98333833,"ECCENTRICITY":0.0002892,"INCLINATION":70.0011,"RA_OF_ASC_NODE":132.6821,"ARG_OF_PERICENTER":274.3698,"MEAN_ANOMALY":85.7131,"EPHEMERIS_TYPE":0,"CLASSIFICATION_TYPE":"U","NORAD_CAT_ID":55927,"ELEMENT_SET_NO":999,"REV_AT_EPOCH":13091,"BSTAR":3.7202e-5,"MEAN_MOTION_DOT":3.51e-6,"MEAN_MOTION_DDOT":0},{"OBJECT_NAME":"STARLINK-5930","OBJECT_ID":"2023-037Q","EPOCH":"2025-08-04T04:53:30.152544","MEAN_MOTION":14.98335331,"ECCENTRICITY":0.0002894,"INCLINATION":70.001,"RA_OF_ASC_NODE":132.666,"ARG_OF_PERICENTER":270.515,"MEAN_ANOMALY":89.5678,"EPHEMERIS_TYPE":0,"CLASSIFICATION_TYPE":"U","NORAD_CAT_ID":55928,"ELEMENT_SET_NO":999,"REV_AT_EPOCH":13091,"BSTAR":7.0975e-5,"MEAN_MOTION_DOT":7.54e-6,"MEAN_MOTION_DDOT":0},{"OBJECT_NAME":"STARLINK-5896","OBJECT_ID":"2023-037S","EPOCH":"2025-08-04T03:11:02.943744","MEAN_MOTION":14.98329635,"ECCENTRICITY":0.000298,"INCLINATION":69.9998,"RA_OF_ASC_NODE":112.9448,"ARG_OF_PERICENTER":269.1759,"MEAN_ANOMALY":90.9059,"EPHEMERIS_TYPE":0,"CLASSIFICATION_TYPE":"U","NORAD_CAT_ID":55930,"ELEMENT_SET_NO":999,"REV_AT_EPOCH":13139,"BSTAR":0.00012348,"MEAN_MOTION_DOT":1.381e-5,"MEAN_MOTION_DDOT":0},{"OBJECT_NAME":"STARLINK-5897","OBJECT_ID":"2023-037T","EPOCH":"2025-08-04T04:47:29.727168","MEAN_MOTION":14.98331821,"ECCENTRICITY":0.0002784,"INCLINATION":70.0011,"RA_OF_ASC_NODE":132.6513,"ARG_OF_PERICENTER":268.0017,"MEAN_ANOMALY":92.0823,"EPHEMERIS_TYPE":0,"CLASSIFICATION_TYPE":"U","NORAD_CAT_ID":55931,"ELEMENT_SET_NO":999,"REV_AT_EPOCH":13091,"BSTAR":8.8645e-6,"MEAN_MOTION_DOT":1.3e-7,"MEAN_MOTION_DDOT":0},{"OBJECT_NAME":"STARLINK-5848","OBJECT_ID":"2023-037U","EPOCH":"2025-08-04T14:59:40.953120","MEAN_MOTION":14.98332084,"ECCENTRICITY":0.0002862,"INCLINATION":69.9996,"RA_OF_ASC_NODE":91.5656,"ARG_OF_PERICENTER":273.9796,"MEAN_ANOMALY":86.1036,"EPHEMERIS_TYPE":0,"CLASSIFICATION_TYPE":"U","NORAD_CAT_ID":55932,"ELEMENT_SET_NO":999,"REV_AT_EPOCH":13196,"BSTAR":3.8422e-5,"MEAN_MOTION_DOT":3.66e-6,"MEAN_MOTION_DDOT":0},{"OBJECT_NAME":"STARLINK-5852","OBJECT_ID":"2023-037V","EPOCH":"2025-08-04T02:10:58.335744","MEAN_MOTION":14.98329917,"ECCENTRICITY":0.0002929,"INCLINATION":70.0007,"RA_OF_ASC_NODE":113.2009,"ARG_OF_PERICENTER":271.1266,"MEAN_ANOMALY":88.9557,"EPHEMERIS_TYPE":0,"CLASSIFICATION_TYPE":"U","NORAD_CAT_ID":55933,"ELEMENT_SET_NO":999,"REV_AT_EPOCH":13138,"BSTAR":-9.1868e-6,"MEAN_MOTION_DOT":-2.03e-6,"MEAN_MOTION_DDOT":0},{"OBJECT_NAME":"STARLINK-5927","OBJECT_ID":"2023-037W","EPOCH":"2025-08-04T03:11:16.591488","MEAN_MOTION":14.98332565,"ECCENTRICITY":0.0002978,"INCLINATION":70.0003,"RA_OF_ASC_NODE":112.9417,"ARG_OF_PERICENTER":268.6433,"MEAN_ANOMALY":91.4385,"EPHEMERIS_TYPE":0,"CLASSIFICATION_TYPE":"U","NORAD_CAT_ID":55934,"ELEMENT_SET_NO":999,"REV_AT_EPOCH":13139,"BSTAR":5.9146e-5,"MEAN_MOTION_DOT":6.13e-6,"MEAN_MOTION_DDOT":0},{"OBJECT_NAME":"STARLINK-5920","OBJECT_ID":"2023-037X","EPOCH":"2025-08-04T03:41:05.671968","MEAN_MOTION":14.9833228,"ECCENTRICITY":0.0002814,"INCLINATION":70.001,"RA_OF_ASC_NODE":113.0153,"ARG_OF_PERICENTER":275.2803,"MEAN_ANOMALY":84.8035,"EPHEMERIS_TYPE":0,"CLASSIFICATION_TYPE":"U","NORAD_CAT_ID":55935,"ELEMENT_SET_NO":999,"REV_AT_EPOCH":13139,"BSTAR":5.8448e-6,"MEAN_MOTION_DOT":-2.3e-7,"MEAN_MOTION_DDOT":0},{"OBJECT_NAME":"STARLINK-5882","OBJECT_ID":"2023-037Y","EPOCH":"2025-08-04T02:16:37.136064","MEAN_MOTION":14.98331676,"ECCENTRICITY":0.0002818,"INCLINATION":70.0003,"RA_OF_ASC_NODE":92.927,"ARG_OF_PERICENTER":271.257,"MEAN_ANOMALY":88.8267,"EPHEMERIS_TYPE":0,"CLASSIFICATION_TYPE":"U","NORAD_CAT_ID":55936,"ELEMENT_SET_NO":999,"REV_AT_EPOCH":13188,"BSTAR":3.043e-5,"MEAN_MOTION_DOT":2.7e-6,"MEAN_MOTION_DDOT":0},{"OBJECT_NAME":"STARLINK-5913","OBJECT_ID":"2023-037Z","EPOCH":"2025-08-04T03:35:04.806816","MEAN_MOTION":14.98334389,"ECCENTRICITY":0.0002987,"INCLINATION":70.0007,"RA_OF_ASC_NODE":113.0003,"ARG_OF_PERICENTER":273.7889,"MEAN_ANOMALY":86.2928,"EPHEMERIS_TYPE":0,"CLASSIFICATION_TYPE":"U","NORAD_CAT_ID":55937,"ELEMENT_SET_NO":999,"REV_AT_EPOCH":13139,"BSTAR":7.5707e-5,"MEAN_MOTION_DOT":8.11e-6,"MEAN_MOTION_DDOT":0},{"OBJECT_NAME":"STARLINK-5909","OBJECT_ID":"2023-037AA","EPOCH":"2025-08-04T03:29:04.240608","MEAN_MOTION":14.98332347,"ECCENTRICITY":0.0002973,"INCLINATION":70.0006,"RA_OF_ASC_NODE":112.9855,"ARG_OF_PERICENTER":270.9788,"MEAN_ANOMALY":89.103,"EPHEMERIS_TYPE":0,"CLASSIFICATION_TYPE":"U","NORAD_CAT_ID":55938,"ELEMENT_SET_NO":999,"REV_AT_EPOCH":13139,"BSTAR":4.4446e-5,"MEAN_MOTION_DOT":4.37e-6,"MEAN_MOTION_DDOT":0},{"OBJECT_NAME":"STARLINK-5918","OBJECT_ID":"2023-037AB","EPOCH":"2025-08-04T03:17:03.083136","MEAN_MOTION":14.98339969,"ECCENTRICITY":0.0003021,"INCLINATION":70.0004,"RA_OF_ASC_NODE":112.9562,"ARG_OF_PERICENTER":271.2173,"MEAN_ANOMALY":88.864,"EPHEMERIS_TYPE":0,"CLASSIFICATION_TYPE":"U","NORAD_CAT_ID":55939,"ELEMENT_SET_NO":999,"REV_AT_EPOCH":13139,"BSTAR":0.0001241,"MEAN_MOTION_DOT":1.388e-5,"MEAN_MOTION_DDOT":0},{"OBJECT_NAME":"STARLINK-5864","OBJECT_ID":"2023-037AC","EPOCH":"2025-08-04T03:23:03.671808","MEAN_MOTION":14.98332641,"ECCENTRICITY":0.0002909,"INCLINATION":70.0006,"RA_OF_ASC_NODE":112.9709,"ARG_OF_PERICENTER":270.6649,"MEAN_ANOMALY":89.4177,"EPHEMERIS_TYPE":0,"CLASSIFICATION_TYPE":"U","NORAD_CAT_ID":55940,"ELEMENT_SET_NO":999,"REV_AT_EPOCH":13139,"BSTAR":3.7791e-5,"MEAN_MOTION_DOT":3.58e-6,"MEAN_MOTION_DDOT":0},{"OBJECT_NAME":"STARLINK-5914","OBJECT_ID":"2023-037AD","EPOCH":"2025-08-04T03:59:07.399104","MEAN_MOTION":14.98333699,"ECCENTRICITY":0.0003176,"INCLINATION":69.9999,"RA_OF_ASC_NODE":113.0592,"ARG_OF_PERICENTER":269.2727,"MEAN_ANOMALY":90.8068,"EPHEMERIS_TYPE":0,"CLASSIFICATION_TYPE":"U","NORAD_CAT_ID":55941,"ELEMENT_SET_NO":999,"REV_AT_EPOCH":13139,"BSTAR":9.8102e-5,"MEAN_MOTION_DOT":1.078e-5,"MEAN_MOTION_DDOT":0},{"OBJECT_NAME":"STARLINK-5917","OBJECT_ID":"2023-037AE","EPOCH":"2025-08-04T02:46:59.807136","MEAN_MOTION":14.98329583,"ECCENTRICITY":0.0002899,"INCLINATION":70.0003,"RA_OF_ASC_NODE":112.8809,"ARG_OF_PERICENTER":268.6012,"MEAN_ANOMALY":91.4815,"EPHEMERIS_TYPE":0,"CLASSIFICATION_TYPE":"U","NORAD_CAT_ID":55942,"ELEMENT_SET_NO":999,"REV_AT_EPOCH":13139,"BSTAR":2.6105e-5,"MEAN_MOTION_DOT":2.19e-6,"MEAN_MOTION_DDOT":0}]
